NORAD_CAT_ID,OBJECT_NAME,OBJECT_TYPE,EPOCH,MEAN_MOTION,ECCENTRICITY,INCLINATION,RA_OF_ASC_NODE,ARG_OF_PERICENTER,MEAN_ANOMALY,BSTAR,MEAN_MOTION_DOT,MEAN_MOTION_DDOT,TLE_LINE0,TLE_LINE1,TLE_LINE2,SEMIMAJOR_AXIS,PERIOD,APOGEE,PERIGEE,DECAYED
51742.0,STARLINK-3521,PAYLOAD,2022-05-13 22:00:00,15.15024578,0.0001636,53.2176,105.0707,51.7294,92.7203,-0.041031,-0.00722447,0.0,0 STARLINK-3521,1 51742U 22016AE  22133.91667824 -.00722447  00000-0 -41031-1 0  9992,2 51742  53.2176 105.0707 0001636  51.7294  92.7203 15.15024578 13981,6899.041,95.048,522.035,519.7769999999998,0.0
51742.0,STARLINK-3521,PAYLOAD,2022-05-14 14:00:01,15.14004881,0.0001662,53.2173,102.052,51.5646,129.7042,-0.0423,-0.00723472,0.0,0 STARLINK-3521,1 51742U 22016AE  22134.58334491 -.00723472  00000-0 -42300-1 0  9996,2 51742  53.2173 102.0520 0001662  51.5646 129.7042 15.14004881  1305,6902.138000000001,95.112,525.15,522.856,0.0
51742.0,STARLINK-3521,PAYLOAD,2022-05-14 22:00:00,15.13494324,0.000173,53.2175,100.5434,50.9798,147.7797,-0.042795,-0.00721595,0.0,0 STARLINK-3521,1 51742U 22016AE  22134.91667824 -.00721595  00000-0 -42795-1 0  9994,2 51742  53.2175 100.5434 0001730  50.9798 147.7797 15.13494324 14137,6903.69,95.144,526.75,524.361,0.0
51742.0,STARLINK-3521,PAYLOAD,2022-05-15 14:00:01,15.12475559,0.0001599,53.2174,97.5314,56.16,175.8048,-0.044233,-0.0072453,0.0,0 STARLINK-3521,1 51742U 22016AE  22135.58335648 -.00724530  00000-0 -44233-1 0  9995,2 51742  53.2174  97.5314 0001599  56.1600 175.8048 15.12475559  1305,6906.79,95.208,529.76,527.5509999999998,0.0
51742.0,STARLINK-3521,PAYLOAD,2022-05-15 22:00:00,15.11964607,0.0001735,53.2174,96.0266,49.1506,198.4036,-0.044699,-0.00721955,0.0,0 STARLINK-3521,1 51742U 22016AE  22135.91667824 -.00721955  00000-0 -44699-1 0  9990,2 51742  53.2174  96.0266 0001735  49.1506 198.4036 15.11964607 14289,6908.346,95.24,531.41,529.013,0.0
51742.0,STARLINK-3521,PAYLOAD,2022-05-16 14:00:01,15.10945886,0.0001520999999999,53.2174,93.0217,56.4691,220.5506,-0.046199,-0.00725013,0.0,0 STARLINK-3521,1 51742U 22016AE  22136.58334491 -.00725013  00000-0 -46199-1 0  9991,2 51742  53.2174  93.0217 0001521  56.4691 220.5506 15.10945886  1306,6911.451,95.305,534.367,532.265,0.0
51742.0,STARLINK-3521,PAYLOAD,2022-05-16 22:00:00,15.10434497,0.0001678,53.2174,91.5204,48.5962,242.2378,-0.046625,-0.00721635,0.0,0 STARLINK-3521,1 51742U 22016AE  22136.91667824 -.00721635  00000-0 -46625-1 0  9997,2 51742  53.2174  91.5204 0001678  48.5962 242.2378 15.10434497  1300,6913.011,95.337,536.036,533.716,0.0
51742.0,STARLINK-3521,PAYLOAD,2022-05-17 06:00:00,15.09923577,0.0001594,53.2175,90.0225,52.6739,251.3605,-0.047215,-0.00720558,0.0,0 STARLINK-3521,1 51742U 22016AE  22137.25001157 -.00720558  00000-0 -47215-1 0  9995,2 51742  53.2175  90.0225 0001594  52.6739 251.3605 15.09923577 14480,6914.57,95.369,537.5369999999998,535.3330000000002,0.0
51742.0,STARLINK-3521,PAYLOAD,2022-05-17 14:00:01,15.09383886,0.0001543,53.2174,88.5225,53.7248,262.9675,-0.04287,-0.00649231,0.0,0 STARLINK-3521,1 51742U 22016AE  22137.58335648 -.00649231  00000-0 -42870-1 0  9996,2 51742  53.2174  88.5225 0001543  53.7248 262.9675 15.09383886  1307,6916.218000000003,95.403,539.151,537.016,0.0
51742.0,STARLINK-3521,PAYLOAD,2022-05-17 20:00:01,15.08893116,0.0001816,53.2173,87.3989,45.4305,190.2494,-0.0056078,-0.0008857,0.0,0 STARLINK-3521,1 51742U 22016AE  22137.83334491 -.00088570  00000-0 -56078-2 0  9998,2 51742  53.2173  87.3989 0001816  45.4305 190.2494 15.08893116 14571,6917.718000000003,95.434,540.839,538.327,0.0
51742.0,STARLINK-3521,PAYLOAD,2022-05-17 22:00:01,15.08842555,0.0001761,53.2175,87.0251,47.4356,281.2303,-0.00057632,-9.449e-05,0.0,0 STARLINK-3521,1 51742U 22016AE  22137.91668981 -.00009449  00000-0 -57632-3 0  9997,2 51742  53.2175  87.0251 0001761  47.4356 281.2303 15.08842555  1307,6917.873000000001,95.437,540.956,538.519,0.0
51742.0,STARLINK-3521,PAYLOAD,2022-05-18 06:00:00,15.08816476,0.0001788,53.2166,85.5313,46.2987,293.9067,0.0021295,0.00033744,0.0,0 STARLINK-3521,1 51742U 22016AE  22138.25001157  .00033744  00000-0  21295-2 0  9999,2 51742  53.2166  85.5313 0001788  46.2987 293.9067 15.08816476 14635,6917.9519999999975,95.439,541.054,538.58,0.0
51742.0,STARLINK-3521,PAYLOAD,2022-05-18 12:00:00,15.08880563,0.0001814,53.2121,84.4138,50.9364,208.0113,-0.00087283,-0.00014168,0.0,0 STARLINK-3521,1 51742U 22016AE  22138.50001157 -.00014168  00000-0 -87283-3 0  9998,2 51742  53.2121  84.4138 0001814  50.9364 208.0113 15.08880563 14671,6917.755999999999,95.435,540.876,538.367,0.0
51742.0,STARLINK-3521,PAYLOAD,2022-05-18 14:00:01,15.08877489,0.0001748,53.2123,84.0393,52.8331,299.0254,-0.00048131,-7.948e-05,0.0,0 STARLINK-3521,1 51742U 22016AE  22138.58334491 -.00007948  00000-0 -48131-3 0  9993,2 51742  53.2123  84.0393 0001748  52.8331 299.0254 15.08877489  1308,6917.766,95.435,540.84,538.422,0.0
51742.0,STARLINK-3521,PAYLOAD,2022-05-18 22:00:00,15.08890023,0.0001629,53.2127,82.5427,53.0657,310.4118,-0.0073271999999999,-0.00115199,0.0,0 STARLINK-3521,1 51742U 22016AE  22138.91667824 -.00115199  00000-0 -73272-2 0  9990,2 51742  53.2127  82.5427 0001629  53.0657 310.4118 15.08890023  1301,6917.727,95.434,540.719,538.466,0.0
51742.0,STARLINK-3521,PAYLOAD,2022-05-19 06:00:00,15.08779243,0.0001684,53.2127,81.0479,43.4521,331.6483,0.0035664,0.00056835,0.0,0 STARLINK-3521,1 51742U 22016AE  22139.25001157  .00056835  00000-0  35664-2 0  9991,2 51742  53.2127  81.0479 0001684  43.4521 331.6483 15.08779243 14782,6918.066,95.441,541.096,538.766,0.0
51742.0,STARLINK-3521,PAYLOAD,2022-05-19 14:00:01,15.08810066,0.000153,53.2128,79.5498,46.9137,339.7948,0.00067376,0.00010442,0.0,0 STARLINK-3521,1 51742U 22016AE  22139.58335648  .00010442  00000-0  67376-3 0  9992,2 51742  53.2128  79.5498 0001530  46.9137 339.7948 15.08810066  1305,6917.972,95.439,540.895,538.778,0.0
51742.0,STARLINK-3521,PAYLOAD,2022-05-19 22:00:00,15.08845997,0.0001516,53.2131,78.0536,49.9806,348.2317,0.00015226,2.136e-05,0.0,0 STARLINK-3521,1 51742U 22016AE  22139.91667824  .00002136  00000-0  15226-3 0  9991,2 51742  53.2131  78.0536 0001516  49.9806 348.2317 15.08845997 14890,6917.861999999999,95.437,540.776,538.678,0.0
51742.0,STARLINK-3521,PAYLOAD,2022-05-20 14:00:01,15.08876807,0.0001541999999999,53.2129,75.0603,50.5169,10.9165,-0.0010301,-0.00016661,0.0,0 STARLINK-3521,1 51742U 22016AE  22140.58334491 -.00016661  00000-0 -10301-2 0  9995,2 51742  53.2129  75.0603 0001542  50.5169  10.9165 15.08876807  1308,6917.768,95.435,540.7,538.566,0.0
51742.0,STARLINK-3521,PAYLOAD,2022-05-20 22:00:00,15.08878122,0.0001647,53.2131,73.564,55.8111,17.2536,-0.0032715,-0.00052033,0.0,0 STARLINK-3521,1 51742U 22016AE  22140.91667824 -.00052033  00000-0 -32715-2 0  9997,2 51742  53.2131  73.5640 0001647  55.8111  17.2536 15.08878122 15046,6917.764,95.435,540.768,538.49,0.0
51742.0,STARLINK-3521,PAYLOAD,2022-05-21 06:00:00,15.08835376,0.0001672,53.2127,72.069,46.4956,38.1662,0.0015459,0.00024398,0.0,0 STARLINK-3521,1 51742U 22016AE  22141.25001157  .00024398  00000-0  15459-2 0  9993,2 51742  53.2127  72.0690 0001672  46.4956  38.1662 15.08835376  1301,6917.895,95.438,540.9159999999998,538.6030000000002,0.0
51742.0,STARLINK-3521,PAYLOAD,2022-05-21 14:00:01,15.08834883,0.0001536,53.2127,70.5705,54.3364,42.0083,0.002171,0.00034428,0.0,0 STARLINK-3521,1 51742U 22016AE  22141.58335648  .00034428  00000-0  21710-2 0  9996,2 51742  53.2127  70.5705 0001536  54.3364  42.0083 15.08834883 15141,6917.896,95.438,540.8240000000002,538.698,0.0
51742.0,STARLINK-3521,PAYLOAD,2022-05-21 22:00:00,15.08869318,0.0001641,53.2127,69.0745,58.0778,49.8036,-0.0023914,-0.00038177,0.0,0 STARLINK-3521,1 51742U 22016AE  22141.91667824 -.00038177  00000-0 -23914-2 0  9992,2 51742  53.2127  69.0745 0001641  58.0778  49.8036 15.08869318  1302,6917.791,95.436,540.7909999999998,538.521,0.0
51742.0,STARLINK-3521,PAYLOAD,2022-05-22 06:00:00,15.08835355,0.0001739,53.2122,67.5792,51.6682,67.8232,0.0011385,0.00017875,0.0,0 STARLINK-3521,1 51742U 22016AE  22142.25001157  .00017875  00000-0  11385-2 0  9990,2 51742  53.2122  67.5792 0001739  51.6682  67.8232 15.08835355 15243,6917.895,95.438,540.9630000000002,538.557,0.0
51742.0,STARLINK-3521,PAYLOAD,2022-05-22 14:00:01,15.08827374,0.0001493,53.2122,66.0809,56.3357,74.7636,-0.0013669,-0.00021969,0.0,0 STARLINK-3521,1 51742U 22016AE  22142.58334491 -.00021969  00000-0 -13669-2 0  9994,2 51742  53.2122  66.0809 0001493  56.3357  74.7636 15.08827374  1303,6917.919,95.438,540.817,538.751,0.0
51742.0,STARLINK-3521,PAYLOAD,2022-05-22 22:00:01,15.08821469,0.000155,53.2125,64.5849,58.1033,84.6356,-0.00090661,-0.0001468,0.0,0 STARLINK-3521,1 51742U 22016AE  22142.91668981 -.00014680  00000-0 -90661-3 0  9995,2 51742  53.2125  64.5849 0001550  58.1033  84.6356 15.08821469 15345,6917.937,95.439,540.874,538.73,0.0
51742.0,STARLINK-3521,PAYLOAD,2022-05-23 14:00:01,15.0881699,0.0001671,53.2167,61.5873,58.0557,107.7374,0.002011,0.00031842,0.0,0 STARLINK-3521,1 51742U 22016AE  22143.58334491  .00031842  00000-0  20110-2 0  9993,2 51742  53.2167  61.5873 0001671  58.0557 107.7374 15.08816990  1300,6917.951,95.439,540.972,538.66,0.0
51742.0,STARLINK-3521,PAYLOAD,2022-05-23 22:00:01,15.08874355,0.0001584,53.214,60.0954,58.9916,118.4656,-0.0035373,-0.00056198,0.0,0 STARLINK-3521,1 51742U 22016AE  22143.91668981 -.00056198  00000-0 -35373-2 0  9994,2 51742  53.2140  60.0954 0001584  58.9916 118.4656 15.08874355 15492,6917.775,95.435,540.736,538.545,0.0
51742.0,STARLINK-3521,PAYLOAD,2022-05-24 11:31:30,15.08835157,0.0001745,53.2147,57.5655,56.2869,303.8289,4.1915e-05,3.79e-06,0.0,0 STARLINK-3521,1 51742U 22016AE  22144.48021513  .00000379  00000-0  41915-4 0  9990,2 51742  53.2147  57.5655 0001745  56.2869 303.8289 15.08835157 15573,6917.895,95.438,540.967,538.553,0.0
